ONEWEB-0312             
1 49098U 21075Z   26188.91747720  .00000080  00000+0  17409-3 0  9998
2 49098  87.9137   1.7480 0002127  85.3068 274.8306 13.17647814236338
ONEWEB-0313             
1 49099U 21075AA  26188.92240059  .00000048  00000+0  89771-4 0  9999
2 49099  87.9134   1.7526 0001899  87.5726 272.5623 13.17649668236322
ONEWEB-0314             
1 49100U 21075AB  26189.19253522  .00000051  00000+0  97522-4 0  9998
2 49100  87.9147   1.6739 0002184  83.9261 276.2120 13.17650954236330
ONEWEB-0315             
1 49101U 21075AC  26188.94501509 -.00000026  00000+0 -10896-3 0  9994
2 49101  87.8962 346.5169 0001740  82.5021 277.6305 13.12443537237893
ONEWEB-0316             
1 49102U 21075AD  26188.87316096 -.00002463  00000+0 -62841-2 0  9995
2 49102  87.9169 331.3455 0002479  95.0045 265.1370 13.18651089239939
ONEWEB-0317             
1 49103U 21075AE  26188.94840580  .00000079  00000+0  18548-3 0  9999
2 49103  87.8958 346.5404 0002292 110.9802 249.1572 13.12443125237914
ONEWEB-0318             
1 49104U 21075AF  26188.94560468  .00000028  00000+0  37197-4 0  9990
2 49104  87.9187 331.3288 0001836  90.6054 269.5289 13.18686347239901
ONEWEB-0319             
1 49105U 21075AG  26188.90396806  .00000031  00000+0  46370-4 0  9997
2 49105  87.9138   1.7457 0001711  74.9045 285.2276 13.17650015236338
ONEWEB-0323             
1 49106U 21075AH  26188.92976538 -.00000358  00000+0 -10316-2 0  9999
2 49106  87.8964 346.5250 0001876  77.0797 283.0541 13.12442604237279
ONEWEB-0329             
1 49107U 21075AJ  26188.91240966  .00000043  00000+0  76691-4 0  9997
2 49107  87.9138   1.7450 0001957  87.5095 272.6261 13.17650225236315
ONEWEB-0330             
1 49108U 21075AK  26189.16668980 -.00036864  00000+0 -94671-1 0  9993
2 49108  87.9146   1.7001 0002307  90.7868  17.3750 13.18142265  5313
ONEWEB-0292             
1 49186U 21083A   26188.88586338  .00000351  00000+0  92757-3 0  9997
2 49186  87.8969 316.1173 0001856  94.6716 265.4625 13.13469620233645
ONEWEB-0303             
1 49187U 21083B   26188.94221552  .00000052  00000+0  98589-4 0  9997
2 49187  87.9191 331.3280 0001817  91.9607 268.1733 13.18688061232712
ONEWEB-0306             
1 49188U 21083C   26188.93210356  .00000010  00000+0 -72335-5 0  9994
2 49188  87.9192 331.3183 0002020 102.2225 257.9133 13.18684416232759
ONEWEB-0307             
1 49189U 21083D   26188.87993602  .00006430  00000+0  17569-1 0  9995
2 49189  87.8974 316.1163 0001945 110.4269 249.7069 13.13440251233648
ONEWEB-0320             
1 49190U 21083E   26188.95233932  .00000034  00000+0  53168-4 0  9991
2 49190  87.9180 331.3303 0001909  98.6103 261.5246 13.18687322232712
ONEWEB-0321             
1 49191U 21083F   26189.18565803  .00000099  00000+0  21131-3 0  9998
2 49191  87.9191 270.2506 0002199 106.6260 253.5115 13.20773847239609
ONEWEB-0322             
1 49192U 21083G   26188.87571361  .00000323  00000+0  85005-3 0  9990
2 49192  87.8974 316.1163 0001873 114.1313 246.0012 13.13470586233634
ONEWEB-0324             
1 49193U 21083H   26188.92537343  .00000008  00000+0 -11334-4 0  9995
2 49193  87.9192 331.3254 0002089  97.3919 262.7451 13.18686500232734
ONEWEB-0325             
1 49194U 21083J   26188.92874012 -.00000016  00000+0 -72654-4 0  9995
2 49194  87.9181 331.3312 0001806  98.3670 261.7667 13.18686866232743
ONEWEB-0326             
1 49195U 21083K   26188.94406757 -.00000012  00000+0 -62817-4 0  9991
2 49195  87.9191 331.3277 0001743  88.9016 271.2316 13.18686113232735
ONEWEB-0327             
1 49196U 21083L   26188.86791047  .00000007  00000+0 -15758-4 0  9997
2 49196  87.9179 331.3453 0001555  87.7478 272.3832 13.18685881232745
ONEWEB-0328             
1 49197U 21083M   26188.86555150  .00000079  00000+0  18208-3 0  9991
2 49197  87.8985 316.0937 0002072  98.1251 262.0114 13.13470222233619
ONEWEB-0331             
1 49198U 21083N   26188.93716164 -.00000065  00000+0 -19823-3 0  9995
2 49198  87.9194 331.3229 0001845  84.5052 275.6290 13.18684239232740
ONEWEB-0333             
1 49199U 21083P   26189.16518014 -.00000013  00000+0 -69186-4 0  9997
2 49199  87.8973 316.0592 0001858  99.5824 260.5515 13.13470355233667
ONEWEB-0334             
1 49200U 21083Q   26188.74541735 -.00000314  00000+0 -80342-3 0  9999
2 49200  87.9190 270.3484 0002183 121.7127 238.4219 13.20771985239505
ONEWEB-0335             
1 49201U 21083R   26188.85537147 -.00000142  00000+0 -42399-3 0  9993
2 49201  87.8973 316.1182 0001889  93.9420 266.1925 13.13472019233634
ONEWEB-0336             
1 49202U 21083S   26188.90278234 -.00000746  00000+0 -20781-2 0  9999
2 49202  87.8975 316.1033 0001891  86.9523 273.1823 13.13472316233636
ONEWEB-0337             
1 49203U 21083T   26188.91281119 -.00000244  00000+0 -70402-3 0  9996
2 49203  87.8970 316.1074 0002076  95.4655 264.6711 13.13468710233638
ONEWEB-0338             
1 49204U 21083U   26189.17724054  .00000095  00000+0  20192-3 0  9999
2 49204  87.9184 270.2648 0001983 107.3935 252.7416 13.20770040239584
ONEWEB-0339             
1 49205U 21083V   26188.84522784 -.00000303  00000+0 -86506-3 0  9994
2 49205  87.8972 316.1141 0002023 107.3153 252.8198 13.13468860233606
