OBJECT_NAME,OBJECT_ID,EPOCH,MEAN_MOTION,ECCENTRICITY,INCLINATION,RA_OF_ASC_NODE,ARG_OF_PERICENTER,MEAN_ANOMALY,EPHEMERIS_TYPE,CLASSIFICATION_TYPE,NORAD_CAT_ID,ELEMENT_SET_NO,REV_AT_EPOCH,BSTAR,MEAN_MOTION_DOT,MEAN_MOTION_DDOT
ONEWEB-0312,2021-075Z,2026-07-07T22:01:10.030080,13.17647814,.0002127,87.9137,1.7480,85.3068,274.8306,0,U,49098,999,23633,.17409E-3,.8E-6,0
ONEWEB-0313,2021-075AA,2026-07-07T22:08:15.410976,13.17649668,.0001899,87.9134,1.7526,87.5726,272.5623,0,U,49099,999,23632,.89771E-4,.48E-6,0
ONEWEB-0314,2021-075AB,2026-07-08T04:37:15.043008,13.17650954,.0002184,87.9147,1.6739,83.9261,276.2120,0,U,49100,999,23633,.97522E-4,.51E-6,0
ONEWEB-0315,2021-075AC,2026-07-07T22:40:49.303776,13.12443537,.000174,87.8962,346.5169,82.5021,277.6305,0,U,49101,999,23789,-.10896E-3,-.26E-6,0
ONEWEB-0316,2021-075AD,2026-07-07T20:57:21.106944,13.18651089,.0002479,87.9169,331.3455,95.0045,265.1370,0,U,49102,999,23993,-.62841E-2,-.2463E-4,0
ONEWEB-0317,2021-075AE,2026-07-07T22:45:42.261120,13.12443125,.0002292,87.8958,346.5404,110.9802,249.1572,0,U,49103,999,23791,.18548E-3,.79E-6,0
ONEWEB-0318,2021-075AF,2026-07-07T22:41:40.244352,13.18686347,.0001836,87.9187,331.3288,90.6054,269.5289,0,U,49104,999,23990,.37197E-4,.28E-6,0
ONEWEB-0319,2021-075AG,2026-07-07T21:41:42.840384,13.17650015,.0001711,87.9138,1.7457,74.9045,285.2276,0,U,49105,999,23633,.4637E-4,.31E-6,0
ONEWEB-0323,2021-075AH,2026-07-07T22:18:51.728832,13.12442604,.0001876,87.8964,346.5250,77.0797,283.0541,0,U,49106,999,23727,-.10316E-2,-.358E-5,0
ONEWEB-0329,2021-075AJ,2026-07-07T21:53:52.194624,13.17650225,.0001957,87.9138,1.7450,87.5095,272.6261,0,U,49107,999,23631,.76691E-4,.43E-6,0
ONEWEB-0330,2021-075AK,2026-07-08T04:00:01.998720,13.18142265,.0002307,87.9146,1.7001,90.7868,17.3750,0,U,49108,999,531,-.94671E-1,-.36864E-3,0
ONEWEB-0292,2021-083A,2026-07-07T21:15:38.596032,13.13469620,.0001856,87.8969,316.1173,94.6716,265.4625,0,U,49186,999,23364,.92757E-3,.351E-5,0
ONEWEB-0303,2021-083B,2026-07-07T22:36:47.420928,13.18688061,.0001817,87.9191,331.3280,91.9607,268.1733,0,U,49187,999,23271,.98589E-4,.52E-6,0
ONEWEB-0306,2021-083C,2026-07-07T22:22:13.747584,13.18684416,.000202,87.9192,331.3183,102.2225,257.9133,0,U,49188,999,23275,-.72335E-5,.1E-6,0
ONEWEB-0307,2021-083D,2026-07-07T21:07:06.472128,13.13440251,.0001945,87.8974,316.1163,110.4269,249.7069,0,U,49189,999,23364,.17569E-1,.643E-4,0
ONEWEB-0320,2021-083E,2026-07-07T22:51:22.117248,13.18687322,.0001909,87.9180,331.3303,98.6103,261.5246,0,U,49190,999,23271,.53168E-4,.34E-6,0
ONEWEB-0321,2021-083F,2026-07-08T04:27:20.853792,13.20773847,.0002199,87.9191,270.2506,106.6260,253.5115,0,U,49191,999,23960,.21131E-3,.99E-6,0
ONEWEB-0322,2021-083G,2026-07-07T21:01:01.655904,13.13470586,.0001873,87.8974,316.1163,114.1313,246.0012,0,U,49192,999,23363,.85005E-3,.323E-5,0
ONEWEB-0324,2021-083H,2026-07-07T22:12:32.264352,13.18686500,.0002089,87.9192,331.3254,97.3919,262.7451,0,U,49193,999,23273,-.11334E-4,.8E-7,0
ONEWEB-0325,2021-083J,2026-07-07T22:17:23.146368,13.18686866,.0001806,87.9181,331.3312,98.3670,261.7667,0,U,49194,999,23274,-.72654E-4,-.16E-6,0
ONEWEB-0326,2021-083K,2026-07-07T22:39:27.438048,13.18686113,.0001743,87.9191,331.3277,88.9016,271.2316,0,U,49195,999,23273,-.62817E-4,-.12E-6,0
ONEWEB-0327,2021-083L,2026-07-07T20:49:47.464608,13.18685881,.0001555,87.9179,331.3453,87.7478,272.3832,0,U,49196,999,23274,-.15758E-4,.7E-7,0
ONEWEB-0328,2021-083M,2026-07-07T20:46:23.649600,13.13470222,.0002072,87.8985,316.0937,98.1251,262.0114,0,U,49197,999,23361,.18208E-3,.79E-6,0
ONEWEB-0331,2021-083N,2026-07-07T22:29:30.765696,13.18684239,.0001845,87.9194,331.3229,84.5052,275.6290,0,U,49198,999,23274,-.19823E-3,-.65E-6,0
ONEWEB-0333,2021-083P,2026-07-08T03:57:51.564096,13.13470355,.0001858,87.8973,316.0592,99.5824,260.5515,0,U,49199,999,23366,-.69186E-4,-.13E-6,0
ONEWEB-0334,2021-083Q,2026-07-07T17:53:24.059040,13.20771985,.0002183,87.9190,270.3484,121.7127,238.4219,0,U,49200,999,23950,-.80342E-3,-.314E-5,0
ONEWEB-0335,2021-083R,2026-07-07T20:31:44.095008,13.13472019,.0001889,87.8973,316.1182,93.9420,266.1925,0,U,49201,999,23363,-.42399E-3,-.142E-5,0
ONEWEB-0336,2021-083S,2026-07-07T21:40:00.394176,13.13472316,.0001891,87.8975,316.1033,86.9523,273.1823,0,U,49202,999,23363,-.20781E-2,-.746E-5,0
ONEWEB-0337,2021-083T,2026-07-07T21:54:26.886816,13.13468710,.0002076,87.8970,316.1074,95.4655,264.6711,0,U,49203,999,23363,-.70402E-3,-.244E-5,0
ONEWEB-0338,2021-083U,2026-07-08T04:15:13.582656,13.20770040,.0001983,87.9184,270.2648,107.3935,252.7416,0,U,49204,999,23958,.20192E-3,.95E-6,0
ONEWEB-0339,2021-083V,2026-07-07T20:17:07.685376,13.13468860,.0002023,87.8972,316.1141,107.3153,252.8198,0,U,49205,999,23360,-.86506E-3,-.303E-5,0
